RADUGA 1 [-]            
1 08513U 75123A   22210.86650208  .00000013  00000+0  00000+0 0  9999
2 08513   6.4427 287.9820 0008451 212.2594 184.4535  1.00260852180723
RADUGA 2 [-]            
1 09416U 76092A   22210.71646743 -.00000061  00000+0  00000+0 0  9995
2 09416   7.1057 289.9598 0025277 358.0662 349.6780  1.00297989115116
RADUGA 3 [-]            
1 10159U 77071A   22210.64624801 -.00000336  00000+0  00000+0 0  9997
2 10159   7.7204 292.5353 0009756 229.0905 127.7434  1.00234795162818
RADUGA 4 [-]            
1 10987U 78073A   22210.91746734  .00000158  00000+0  00000+0 0  9990
2 10987   8.3424 296.0150 0007094   0.5010  18.9937  1.00270036105380
RADUGA 5 [-]            
1 11343U 79035A   22210.79265104 -.00000181  00000+0  00000+0 0  9996
2 11343   8.8007 298.7520 0007584 169.7298 209.9117  1.00272055115138
RADUGA 6 [-]            
1 11708U 80016A   22210.84910226  .00000086  00000+0  00000+0 0  9993
2 11708   9.1580 301.7967 0003726 189.3290 176.3328  1.00327125107947
RADUGA 7 [-]            
1 12003U 80081A   22211.11916470 -.00000209  00000+0  00000+0 0  9990
2 12003   9.3404 303.7283 0009615 254.1025 122.2315  1.00298059109093
RADUGA 8 [-]            
1 12351U 81027A   22210.99213170 -.00000177  00000+0  00000+0 0  9993
2 12351   9.6715 304.3242 0083062 227.6327 214.5256  1.00418545108314
RADUGA 9 [-]            
1 12618U 81069A   22210.91912414  .00000130  00000+0  00000+0 0  9992
2 12618   9.8881 307.2568 0005502 152.5465 224.6415  1.00327596 33121
RADUGA 10 [-]           
1 12897U 81102A   22210.99171463 -.00000145  00000+0  00000+0 0  9995
2 12897   9.9731 308.2248 0006929 174.7350 262.8110  1.00291729103126
RADUGA 11 [-]           
1 13669U 82113A   22211.05367428 -.00000153  00000+0  00000+0 0  9991
2 13669  12.0058 321.8491 0037659 252.3357 113.4197  0.97710052107687
RADUGA 12 [-]           
1 13974U 83028A   22210.86594215  .00000005  00000+0  00000+0 0  9995
2 13974  11.1068 317.9377 0004467 127.5048 239.0628  1.00277228155154
RADUGA 13 [-]           
1 14307U 83088A   22210.90813148 -.00000019  00000+0  00000+0 0  9992
2 14307  12.2525 323.3998 0015315  49.5051 314.3236  0.98173067105021
RADUGA 14 [-]           
1 14725U 84016A   22211.29493692 -.00000193  00000+0  00000+0 0  9992
2 14725  11.3094 321.6723 0006740 138.8250  39.7462  1.00280214103886
RADUGA 15 [-]           
1 15057U 84063A   22210.62757677 -.00000355  00000+0  00000+0 0  9995
2 15057  11.4318 322.6681 0006902 155.1140 174.3333  1.00327542126872
RADUGA 16 [-]           
1 15946U 85070A   22211.52137963  .00000083  00000+0  00000+0 0  9998
2 15946  11.8862 327.3105 0003504 149.2542 206.8545  1.00275154108007
RADUGA 17 [-]           
1 16250U 85107A   22211.21924663 -.00000288  00000+0  00000+0 0  9993
2 16250  12.0090 328.6902 0015701 177.2319 183.1037  1.00151596137464
RADUGA 18 [-]           
1 16497U 86007A   22211.05323829 -.00000190  00000+0  00000+0 0  9997
2 16497  12.8144 331.3947 0076661 164.3352 189.8197  0.98815012131843
RADUGA 19 [-]           
1 17046U 86082A   22211.12282712 -.00000207  00000+0  00000+0 0  9993
2 17046  13.2379 335.3132 0015048 145.8859 219.1155  0.98462268128957
RADUGA 20 [-]           
1 17611U 87028A   22211.45966890 -.00000078  00000+0  00000+0 0  9990
2 17611  15.2484 338.8355 0032340 135.9283 238.3092  0.95961108124711
RADUGA 21 [-]           
1 18631U 87100A   22211.52451885  .00000116  00000+0  00000+0 0  9997
2 18631  13.3223 336.1874 0004852 126.5961 237.6088  1.00275315126878
RADUGA 22 [-]           
1 19596U 88095A   22211.22330178 -.00000338  00000+0  00000+0 0  9997
2 19596  13.3011 340.4622 0008818 134.4732  45.2872  1.00242025107430
RADUGA 23 [-]           
1 19928U 89030A   22211.49097385  .00000134  00000+0  00000+0 0  9998
2 19928  13.4445 342.2759 0023214 159.1342  18.3010  1.00314225120634
RADUGA-1 1 [-]          
1 20083U 89048A   22211.52643726 -.00000032  00000+0  00000+0 0  9999
2 20083  14.1950 345.3270 0023864 114.6768 251.3005  0.98708754117288
RADUGA 24 [-]           
1 20367U 89098A   22211.42629828 -.00000049  00000+0  00000+0 0  9993
2 20367  14.0166 344.5433 0003200 127.7253  60.0052  1.00206470118751
RADUGA 25 [-]           
1 20499U 90016A   22211.28104984 -.00000296  00000+0  00000+0 0  9990
2 20499  13.7861 345.1906 0006991 136.4543 230.7882  1.00202265118694
RADUGA 26 [-]           
1 21016U 90112A   22211.42429267  .00000019  00000+0  00000+0 0  9995
2 21016  14.0942 348.4448 0008726  95.0321  77.6269  1.00309281116043
RADUGA-1 2 [-]          
1 21038U 90116A   22211.49393866  .00000093  00000+0  00000+0 0  9997
2 21038  14.1315 348.5176 0009989 102.1774  85.2264  1.00256010 33123
RADUGA 27 [-]           
1 21132U 91014A   22211.56993878  .00000088  00000+0  00000+0 0  9991
2 21132  14.6423 348.0793 0005535 102.4889  80.3748  1.00268564115093
RADUGA 28 [-]           
1 21821U 91087A   22211.36178611 -.00000343  00000+0  00000+0 0  9999
2 21821  14.4043 351.7869 0009527 120.7988  72.5522  1.00215497112106
RADUGA 29 [-]           
1 22557U 93013A   22211.07271633  .00000120  00000+0  00000+0 0  9995
2 22557  14.6021 355.9664 0008338 110.6302 252.9531  1.00331896107466
RADUGA 30 [-]           
1 22836U 93062A   22211.42760628 -.00000122  00000+0  00000+0 0  9998
2 22836  14.6399 357.9318 0002180  61.1671 119.8417  1.00259353 31782
RADUGA-1 3 [-]          
1 22981U 94008A   22211.36047810 -.00000315  00000+0  00000+0 0  9998
2 22981  14.7167 359.0841 0005922 103.5921  75.3085  1.00259308104268
RADUGA 31 [-]           
1 23010U 94012A   22211.49446188  .00000069  00000+0  00000+0 0  9997
2 23010  14.6852 359.0804 0007086  96.2102  83.2654  1.00317570104135
RADUGA 32 [-]           
1 23448U 94087A   22209.94317712 -.00000127  00000+0  00000+0 0  9997
2 23448  14.6635   1.8010 0004735 179.0362 182.5800  1.00262087118656
RADUGA-1 4 [-]          
1 25642U 99010A   22211.06716182  .00000125  00000+0  00000+0 0  9993
2 25642  15.2099  13.3902 0000659 158.6224 195.2320  1.00285945 85721
RADUGA-1 5 [-]          
1 26477U 00049A   22211.06221992  .00000116  00000+0  00000+0 0  9994
2 26477  13.1500  18.2000 0006896  67.3706 288.2836  1.00264275 80199
RADUGA-1 6 [-]          
1 26936U 01045A   22210.99786608 -.00000040  00000+0  00000+0 0  9999
2 26936  13.3052  24.5036 0016257 157.1652 206.3112  0.97743367 74743
RADUGA-1 7 [-]          
1 28194U 04010A   22211.36617612 -.00000353  00000+0  00000+0 0  9999
2 28194  12.0172  31.3521 0002177 109.9507  67.4587  1.00257163 67209
RADUGA-1M 1 [-]         
1 32373U 07058A   22211.13660478  .00000106  00000+0  00000+0 0  9996
2 32373   6.9867  63.7766 0005144  26.6960 323.3999  0.99393400 38291
RADUGA-1 8 [-]          
1 34264U 09010A   22211.19702300  .00000116  00000+0  00000+0 0  9995
2 34264   9.3073  53.7853 0014861   6.0888 353.9507  0.99822346 49013
RADUGA-1M 2 [+]         
1 36358U 10002A   22211.50097476 -.00000181  00000+0  00000+0 0  9993
2 36358   0.0554 250.3061 0002410 273.4055  49.7343  1.00270776 35874
RADUGA-1M 3 [+]         
1 39375U 13062A   22210.48643563  .00000156  00000+0  00000+0 0  9995
2 39375   2.3348  89.3308 0003082 157.1598 270.7277  1.00274763 31904
